OBJECT_NAME,OBJECT_ID,EPOCH,MEAN_MOTION,ECCENTRICITY,INCLINATION,RA_OF_ASC_NODE,ARG_OF_PERICENTER,MEAN_ANOMALY,EPHEMERIS_TYPE,CLASSIFICATION_TYPE,NORAD_CAT_ID,ELEMENT_SET_NO,REV_AT_EPOCH,BSTAR,MEAN_MOTION_DOT,MEAN_MOTION_DDOT
SAUDISAT 5A,2018-102A,2026-07-17T05:16:08.499648,15.28332802,.0010249,97.3048,259.2245,37.3546,322.8405,0,U,43831,999,42026,.10752E-3,.2897E-4,0
SAUDISAT 5B,2018-102C,2026-07-17T04:01:57.621792,15.28575179,.0011044,97.3158,262.2980,38.8481,321.3550,0,U,43833,999,42037,.10112E-3,.2741E-4,0
GAOFEN-10R,2019-066A,2026-07-17T04:16:13.005984,14.83059440,.0006773,98.0510,151.9778,47.6876,312.4910,0,U,44622,999,36682,.70472E-4,.519E-5,0
CARTOSAT-3,2019-081A,2026-07-17T04:35:09.756960,15.19189643,.0012852,97.4288,259.5725,52.5547,307.6854,0,U,44804,999,36802,.56862E-4,.113E-4,0
GAOFEN-12 01,2019-082A,2026-07-17T05:22:06.192192,14.80480354,.0000871,97.8110,203.8116,57.4318,302.6978,0,U,44819,999,35853,.25641E-4,.146E-5,0
CSG-1,2019-092A,2026-07-17T03:51:55.827648,14.82157847,.0001441,97.8897,21.3308,93.1002,267.0376,0,U,44873,999,35591,.31644E-4,.2E-5,0
NEMO-HD,2020-061F,2026-07-17T04:24:50.559264,15.45164542,.0001008,97.1899,259.8431,103.0375,257.0987,0,U,46277,999,32661,.13915E-3,.6509E-4,0
SENTINEL-6A,2020-086A,2026-07-17T01:35:57.866208,12.80930174,.0007777,66.0412,72.9935,269.7294,90.2830,0,U,46984,999,26415,.84161E-4,-.42E-6,0
CAS500-1,2021-022A,2026-07-17T03:28:40.325952,15.20143675,.0005389,97.3861,92.7861,164.4098,195.7304,0,U,47932,999,29531,.14275E-3,.302E-4,0
GAOFEN-12 02,2021-026A,2026-07-17T05:42:41.249088,14.80316844,.0005943,97.9936,196.2978,126.7876,233.3882,0,U,48079,999,28620,.24177E-4,.131E-5,0
PLEIADES NEO 3,2021-034A,2026-07-17T04:04:50.761344,14.81670463,.0001356,97.8942,272.5052,95.9730,264.1637,0,U,48268,999,28209,.85003E-4,.617E-5,0
PLEIADES NEO 4,2021-073E,2026-07-17T04:53:27.293568,14.81672796,.0001333,97.8941,272.5344,93.9103,266.2263,0,U,49070,999,26581,-.33289E-5,-.78E-6,0
LANDSAT 9,2021-088A,2026-07-16T19:02:18.542688,14.57096185,.0001125,98.2269,267.6103,89.4902,270.6425,0,U,49260,999,25531,.45551E-4,.16E-5,0
CSG-2,2022-008A,2026-07-17T04:40:30.763200,14.82149546,.0001507,97.8887,21.3574,87.8999,272.2386,0,U,51444,999,24103,.60962E-5,-.4E-7,0
GAOFEN-12 03,2022-069A,2026-07-17T03:18:26.864352,14.80079412,.0002442,97.8241,85.2483,69.6433,290.5042,0,U,52912,999,21904,.10936E-3,.778E-5,0
SWOT,2022-173A,2026-07-17T03:24:22.702752,14.00172444,.0000236,77.6112,354.8698,70.4027,289.7150,0,U,54754,999,18334,-.22662E-4,-.36E-6,0
GAOFEN-12 04,2023-123A,2026-07-17T05:24:45.085248,14.79777329,.0003414,97.9099,115.7939,46.2299,313.9195,0,U,57654,999,15707,.65627E-4,.442E-5,0
PARS 1,2024-039Q,2026-07-17T05:12:16.642656,15.46316490,.000953,97.4843,180.0991,20.3336,339.8291,0,U,59065,999,13328,.13194E-3,.642E-4,0
RESURS-P 4,2024-061A,2026-07-17T04:10:26.903136,15.32286633,.0003235,97.2760,145.5555,86.6300,273.5313,0,U,59371,999,12835,.52644E-4,.1565E-4,0
LEGION 1,2024-081A,2026-07-17T04:16:30.368928,15.16851031,.0007754,97.5010,275.7171,261.4467,98.5887,0,U,59625,999,12208,.93163E-4,.1766E-4,0
LEGION 2,2024-081B,2026-07-17T05:00:18.204192,15.16830386,.0010362,97.5011,275.8439,225.7910,134.2473,0,U,59626,999,12209,.97557E-4,.1852E-4,0
ALOS-4 (DAICHI-4),2024-123A,2026-07-17T04:30:01.162080,14.79473161,.0001545,97.9221,294.9328,97.4926,262.6461,0,U,60182,999,11031,.1023E-3,.713E-5,0
LEGION 3,2024-146A,2026-07-17T02:47:10.970016,15.15661781,.0008033,45.0016,230.0922,344.4301,15.6329,0,U,60452,999,10656,.79405E-4,.1272E-4,0
LEGION 4,2024-146B,2026-07-16T20:27:08.053920,15.15688150,.0009021,45.0027,323.3744,124.0069,236.1667,0,U,60453,999,10537,.98643E-4,.1646E-4,0
SENTINEL-2C,2024-157A,2026-07-17T04:08:29.286816,14.30816028,.0000996,98.5684,272.5288,104.2844,255.8450,0,U,60989,999,9727,.3592E-4,.51E-6,0
IONOSFERA-M 1,2024-199A,2026-07-17T03:39:42.983712,14.22759380,.0002133,98.7132,71.0030,70.2264,289.9144,0,U,61735,999,13196,.25393E-4,.13E-6,0
IONOSFERA-M 2,2024-199B,2026-07-17T04:28:59.952864,14.22762768,.0000574,98.7131,70.9472,128.2032,231.9198,0,U,61736,999,13509,.24385E-4,.11E-6,0
PRSC-EO1,2025-012A,2026-07-17T04:35:06.130752,15.17635902,.0006925,97.4212,270.0625,140.8238,219.3498,0,U,62725,999,8274,.17081E-3,.3372E-4,0
BIOMASS,2025-090A,2026-07-16T23:14:14.644320,14.67536192,.0001459,98.0751,24.8496,91.2438,268.8934,0,U,63772,999,6505,.50933E-4,.241E-5,0
GOSAT-GW (IBUKI GW),2025-141A,2026-07-17T02:55:24.354624,14.67555283,.0001448,98.0565,134.9526,85.3203,274.8167,0,U,64694,999,5623,.47446E-4,.221E-5,0
IONOSFERA-M 3,2025-155A,2026-07-17T03:51:49.093632,14.21491036,.0002346,98.6041,159.3143,109.5927,250.5504,0,U,64876,999,5066,.25848E-4,.14E-6,0
