SAUDISAT 5A             
1 43831U 18102A   26198.21954282  .00002897  00000+0  10752-3 0  9993
2 43831  97.3048 259.2245 0010249  37.3546 322.8405 15.28332802420267
SAUDISAT 5B             
1 43833U 18102C   26198.16802803  .00002741  00000+0  10112-3 0  9998
2 43833  97.3158 262.2980 0011044  38.8481 321.3550 15.28575179420372
GAOFEN-10R              
1 44622U 19066A   26198.17792831  .00000519  00000+0  70472-4 0  9992
2 44622  98.0510 151.9778 0006773  47.6876 312.4910 14.83059440366825
CARTOSAT-3              
1 44804U 19081A   26198.19108515  .00001130  00000+0  56862-4 0  9990
2 44804  97.4288 259.5725 0012852  52.5547 307.6854 15.19189643368020
GAOFEN-12 01            
1 44819U 19082A   26198.22368278  .00000146  00000+0  25641-4 0  9992
2 44819  97.8110 203.8116 0000871  57.4318 302.6978 14.80480354358535
CSG-1                   
1 44873U 19092A   26198.16106282  .00000200  00000+0  31644-4 0  9992
2 44873  97.8897  21.3308 0001441  93.1002 267.0376 14.82157847355919
NEMO-HD                 
1 46277U 20061F   26198.18391851  .00006509  00000+0  13915-3 0  9998
2 46277  97.1899 259.8431 0001008 103.0375 257.0987 15.45164542326614
SENTINEL-6A             
1 46984U 20086A   26198.06664197 -.00000042  00000+0  84161-4 0  9992
2 46984  66.0412  72.9935 0007777 269.7294  90.2830 12.80930174264159
CAS500-1                
1 47932U 21022A   26198.14491118  .00003020  00000+0  14275-3 0  9993
2 47932  97.3861  92.7861 0005389 164.4098 195.7304 15.20143675295314
GAOFEN-12 02            
1 48079U 21026A   26198.23797742  .00000131  00000+0  24177-4 0  9995
2 48079  97.9936 196.2978 0005943 126.7876 233.3882 14.80316844286209
PLEIADES NEO 3          
1 48268U 21034A   26198.17003196  .00000617  00000+0  85003-4 0  9994
2 48268  97.8942 272.5052 0001356  95.9730 264.1637 14.81670463282090
PLEIADES NEO 4          
1 49070U 21073E   26198.20378812 -.00000078  00000+0 -33289-5 0  9996
2 49070  97.8941 272.5344 0001333  93.9103 266.2263 14.81672796265812
LANDSAT 9               
1 49260U 21088A   26197.79327017  .00000160  00000+0  45551-4 0  9991
2 49260  98.2269 267.6103 0001125  89.4902 270.6425 14.57096185255313
CSG-2                   
1 51444U 22008A   26198.19480050 -.00000004  00000+0  60962-5 0  9995
2 51444  97.8887  21.3574 0001507  87.8999 272.2386 14.82149546241036
GAOFEN-12 03            
1 52912U 22069A   26198.13781093  .00000778  00000+0  10936-3 0  9999
2 52912  97.8241  85.2483 0002442  69.6433 290.5042 14.80079412219049
SWOT                    
1 54754U 22173A   26198.14192943 -.00000036  00000+0 -22662-4 0  9991
2 54754  77.6112 354.8698 0000236  70.4027 289.7150 14.00172444183343
GAOFEN-12 04            
1 57654U 23123A   26198.22552182  .00000442  00000+0  65627-4 0  9990
2 57654  97.9099 115.7939 0003414  46.2299 313.9195 14.79777329157078
PARS 1                  
1 59065U 24039Q   26198.21685929  .00006420  00000+0  13194-3 0  9993
2 59065  97.4843 180.0991 0009530  20.3336 339.8291 15.46316490133285
RESURS-P 4              
1 59371U 24061A   26198.17392249  .00001565  00000+0  52644-4 0  9992
2 59371  97.2760 145.5555 0003235  86.6300 273.5313 15.32286633128356
LEGION 1                
1 59625U 24081A   26198.17812927  .00001766  00000+0  93163-4 0  9990
2 59625  97.5010 275.7171 0007754 261.4467  98.5887 15.16851031122083
LEGION 2                
1 59626U 24081B   26198.20854403  .00001852  00000+0  97557-4 0  9997
2 59626  97.5011 275.8439 0010362 225.7910 134.2473 15.16830386122098
ALOS-4 (DAICHI-4)       
1 60182U 24123A   26198.18751345  .00000713  00000+0  10230-3 0  9998
2 60182  97.9221 294.9328 0001545  97.4926 262.6461 14.79473161110314
LEGION 3                
1 60452U 24146A   26198.11609919  .00001272  00000+0  79405-4 0  9996
2 60452  45.0016 230.0922 0008033 344.4301  15.6329 15.15661781106561
LEGION 4                
1 60453U 24146B   26197.85217655  .00001646  00000+0  98643-4 0  9999
2 60453  45.0027 323.3744 0009021 124.0069 236.1667 15.15688150105375
SENTINEL-2C             
1 60989U 24157A   26198.17256119  .00000051  00000+0  35920-4 0  9997
2 60989  98.5684 272.5288 0000996 104.2844 255.8450 14.30816028 97272
IONOSFERA-M 1           
1 61735U 24199A   26198.15258083  .00000013  00000+0  25393-4 0  9994
2 61735  98.7132  71.0030 0002133  70.2264 289.9144 14.22759380131963
IONOSFERA-M 2           
1 61736U 24199B   26198.18680501  .00000011  00000+0  24385-4 0  9990
2 61736  98.7131  70.9472 0000574 128.2032 231.9198 14.22762768135093
PRSC-EO1                
1 62725U 25012A   26198.19104318  .00003372  00000+0  17081-3 0  9999
2 62725  97.4212 270.0625 0006925 140.8238 219.3498 15.17635902 82745
BIOMASS                 
1 63772U 25090A   26197.96822505  .00000241  00000+0  50933-4 0  9993
2 63772  98.0751  24.8496 0001459  91.2438 268.8934 14.67536192 65056
GOSAT-GW (IBUKI GW)     
1 64694U 25141A   26198.12180966  .00000221  00000+0  47446-4 0  9994
2 64694  98.0565 134.9526 0001448  85.3203 274.8167 14.67555283 56239
IONOSFERA-M 3           
1 64876U 25155A   26198.16098488  .00000014  00000+0  25848-4 0  9994
2 64876  98.6041 159.3143 0002346 109.5927 250.5504 14.21491036 50664
